<xml>
<item>
<COMMENT>GENERATED VIA SPACETRACK.ORG API</COMMENT>
<ORIGINATOR>18 SPCS</ORIGINATOR>
<NORAD_CAT_ID>55279</NORAD_CAT_ID>
<OBJECT_NAME>STARLINK-5323</OBJECT_NAME>
<OBJECT_TYPE>PAYLOAD</OBJECT_TYPE>
<CLASSIFICATION_TYPE>U</CLASSIFICATION_TYPE>
<INTLDES>23010L</INTLDES>
<EPOCH>2023-10-24 11:07:33</EPOCH>
<EPOCH_MICROSECONDS>570336</EPOCH_MICROSECONDS>
<MEAN_MOTION>14.98330235</MEAN_MOTION>
<ECCENTRICITY>0.00031</ECCENTRICITY>
<INCLINATION>70</INCLINATION>
<RA_OF_ASC_NODE>71.0508</RA_OF_ASC_NODE>
<ARG_OF_PERICENTER>267.7321</ARG_OF_PERICENTER>
<MEAN_ANOMALY>92.3483</MEAN_ANOMALY>
<EPHEMERIS_TYPE>0</EPHEMERIS_TYPE>
<ELEMENT_SET_NO>999</ELEMENT_SET_NO>
<REV_AT_EPOCH>4288</REV_AT_EPOCH>
<BSTAR>0.00016497</BSTAR>
<MEAN_MOTION_DOT>0.00001876</MEAN_MOTION_DOT>
<MEAN_MOTION_DDOT>0</MEAN_MOTION_DDOT>
<FILE>4051588</FILE>
<TLE_LINE0>0 STARLINK-5323</TLE_LINE0>
<TLE_LINE1>1 55279U 23010L 23297.46358299 .00001876 00000-0 16497-3 0 9995</TLE_LINE1>
<TLE_LINE2>2 55279 70.0000 71.0508 0003100 267.7321 92.3483 14.98330235 42889</TLE_LINE2>
<OBJECT_ID>2023-010L</OBJECT_ID>
<OBJECT_NUMBER>55279</OBJECT_NUMBER>
<SEMIMAJOR_AXIS>6950.192</SEMIMAJOR_AXIS>
<PERIOD>96.107</PERIOD>
<APOGEE>574.212</APOGEE>
<PERIGEE>569.903</PERIGEE>
<DECAYED>0</DECAYED>
</item>
<item>
<COMMENT>GENERATED VIA SPACETRACK.ORG API</COMMENT>
<ORIGINATOR>18 SPCS</ORIGINATOR>
<NORAD_CAT_ID>55277</NORAD_CAT_ID>
<OBJECT_NAME>STARLINK-5299</OBJECT_NAME>
<OBJECT_TYPE>PAYLOAD</OBJECT_TYPE>
<CLASSIFICATION_TYPE>U</CLASSIFICATION_TYPE>
<INTLDES>23010J</INTLDES>
<EPOCH>2023-10-24 11:13:34</EPOCH>
<EPOCH_MICROSECONDS>356000</EPOCH_MICROSECONDS>
<MEAN_MOTION>14.98324146</MEAN_MOTION>
<ECCENTRICITY>0.0003071</ECCENTRICITY>
<INCLINATION>70</INCLINATION>
<RA_OF_ASC_NODE>71.0658</RA_OF_ASC_NODE>
<ARG_OF_PERICENTER>263.349</ARG_OF_PERICENTER>
<MEAN_ANOMALY>96.7319</MEAN_ANOMALY>
<EPHEMERIS_TYPE>0</EPHEMERIS_TYPE>
<ELEMENT_SET_NO>999</ELEMENT_SET_NO>
<REV_AT_EPOCH>4257</REV_AT_EPOCH>
<BSTAR>0.000086898</BSTAR>
<MEAN_MOTION_DOT>0.00000944</MEAN_MOTION_DOT>
<MEAN_MOTION_DDOT>0</MEAN_MOTION_DDOT>
<FILE>4051251</FILE>
<TLE_LINE0>0 STARLINK-5299</TLE_LINE0>
<TLE_LINE1>1 55277U 23010J 23297.46775875 .00000944 00000-0 86898-4 0 9994</TLE_LINE1>
<TLE_LINE2>2 55277 70.0000 71.0658 0003071 263.3490 96.7319 14.98324146 42575</TLE_LINE2>
<OBJECT_ID>2023-010J</OBJECT_ID>
<OBJECT_NUMBER>55277</OBJECT_NUMBER>
<SEMIMAJOR_AXIS>6950.211</SEMIMAJOR_AXIS>
<PERIOD>96.107</PERIOD>
<APOGEE>574.210</APOGEE>
<PERIGEE>569.942</PERIGEE>
<DECAYED>0</DECAYED>
</item>
<item>
<COMMENT>GENERATED VIA SPACETRACK.ORG API</COMMENT>
<ORIGINATOR>18 SPCS</ORIGINATOR>
<NORAD_CAT_ID>55277</NORAD_CAT_ID>
<OBJECT_NAME>STARLINK-5299</OBJECT_NAME>
<OBJECT_TYPE>PAYLOAD</OBJECT_TYPE>
<CLASSIFICATION_TYPE>U</CLASSIFICATION_TYPE>
<INTLDES>23010J</INTLDES>
<EPOCH>2023-10-24 11:13:34</EPOCH>
<EPOCH_MICROSECONDS>356000</EPOCH_MICROSECONDS>
<MEAN_MOTION>14.98324146</MEAN_MOTION>
<ECCENTRICITY>0.0003071</ECCENTRICITY>
<INCLINATION>70</INCLINATION>
<RA_OF_ASC_NODE>71.0658</RA_OF_ASC_NODE>
<ARG_OF_PERICENTER>263.349</ARG_OF_PERICENTER>
<MEAN_ANOMALY>96.7319</MEAN_ANOMALY>
<EPHEMERIS_TYPE>0</EPHEMERIS_TYPE>
<ELEMENT_SET_NO>999</ELEMENT_SET_NO>
<REV_AT_EPOCH>4288</REV_AT_EPOCH>
<BSTAR>0.000086898</BSTAR>
<MEAN_MOTION_DOT>0.00000944</MEAN_MOTION_DOT>
<MEAN_MOTION_DDOT>0</MEAN_MOTION_DDOT>
<FILE>4051588</FILE>
<TLE_LINE0>0 STARLINK-5299</TLE_LINE0>
<TLE_LINE1>1 55277U 23010J 23297.46775875 .00000944 00000-0 86898-4 0 9994</TLE_LINE1>
<TLE_LINE2>2 55277 70.0000 71.0658 0003071 263.3490 96.7319 14.98324146 42889</TLE_LINE2>
<OBJECT_ID>2023-010J</OBJECT_ID>
<OBJECT_NUMBER>55277</OBJECT_NUMBER>
<SEMIMAJOR_AXIS>6950.211</SEMIMAJOR_AXIS>
<PERIOD>96.107</PERIOD>
<APOGEE>574.210</APOGEE>
<PERIGEE>569.942</PERIGEE>
<DECAYED>0</DECAYED>
</item>
<item>
<COMMENT>GENERATED VIA SPACETRACK.ORG API</COMMENT>
<ORIGINATOR>18 SPCS</ORIGINATOR>
<NORAD_CAT_ID>55298</NORAD_CAT_ID>
<OBJECT_NAME>STARLINK-5272</OBJECT_NAME>
<OBJECT_TYPE>PAYLOAD</OBJECT_TYPE>
<CLASSIFICATION_TYPE>U</CLASSIFICATION_TYPE>
<INTLDES>23010AF</INTLDES>
<EPOCH>2023-10-24 11:37:15</EPOCH>
<EPOCH_MICROSECONDS>112416</EPOCH_MICROSECONDS>
<MEAN_MOTION>14.98325984</MEAN_MOTION>
<ECCENTRICITY>0.0003177</ECCENTRICITY>
<INCLINATION>70</INCLINATION>
<RA_OF_ASC_NODE>50.8486</RA_OF_ASC_NODE>
<ARG_OF_PERICENTER>262.9861</ARG_OF_PERICENTER>
<MEAN_ANOMALY>97.0937</MEAN_ANOMALY>
<EPHEMERIS_TYPE>0</EPHEMERIS_TYPE>
<ELEMENT_SET_NO>999</ELEMENT_SET_NO>
<REV_AT_EPOCH>4306</REV_AT_EPOCH>
<BSTAR>0.00012279</BSTAR>
<MEAN_MOTION_DOT>0.00001372</MEAN_MOTION_DOT>
<MEAN_MOTION_DDOT>0</MEAN_MOTION_DDOT>
<FILE>4051570</FILE>
<TLE_LINE0>0 STARLINK-5272</TLE_LINE0>
<TLE_LINE1>1 55298U 23010AF 23297.48420269 .00001372 00000-0 12279-3 0 9990</TLE_LINE1>
<TLE_LINE2>2 55298 70.0000 50.8486 0003177 262.9861 97.0937 14.98325984 43062</TLE_LINE2>
<OBJECT_ID>2023-010AF</OBJECT_ID>
<OBJECT_NUMBER>55298</OBJECT_NUMBER>
<SEMIMAJOR_AXIS>6950.205</SEMIMAJOR_AXIS>
<PERIOD>96.107</PERIOD>
<APOGEE>574.278</APOGEE>
<PERIGEE>569.862</PERIGEE>
<DECAYED>0</DECAYED>
</item>
<item>
<COMMENT>GENERATED VIA SPACETRACK.ORG API</COMMENT>
<ORIGINATOR>18 SPCS</ORIGINATOR>
<NORAD_CAT_ID>49138</NORAD_CAT_ID>
<OBJECT_NAME>STARLINK-3058</OBJECT_NAME>
<OBJECT_TYPE>PAYLOAD</OBJECT_TYPE>
<CLASSIFICATION_TYPE>U</CLASSIFICATION_TYPE>
<INTLDES>21082J</INTLDES>
<EPOCH>2023-10-24 12:02:48</EPOCH>
<EPOCH_MICROSECONDS>762528</EPOCH_MICROSECONDS>
<MEAN_MOTION>14.98327661</MEAN_MOTION>
<ECCENTRICITY>0.0002739</ECCENTRICITY>
<INCLINATION>70</INCLINATION>
<RA_OF_ASC_NODE>320.9535</RA_OF_ASC_NODE>
<ARG_OF_PERICENTER>270.7178</ARG_OF_PERICENTER>
<MEAN_ANOMALY>89.3668</MEAN_ANOMALY>
<EPHEMERIS_TYPE>0</EPHEMERIS_TYPE>
<ELEMENT_SET_NO>999</ELEMENT_SET_NO>
<REV_AT_EPOCH>11608</REV_AT_EPOCH>
<BSTAR>0.000045774</BSTAR>
<MEAN_MOTION_DOT>0.00000453</MEAN_MOTION_DOT>
<MEAN_MOTION_DDOT>0</MEAN_MOTION_DDOT>
<FILE>4051588</FILE>
<TLE_LINE0>0 STARLINK-3058</TLE_LINE0>
<TLE_LINE1>1 49138U 21082J 23297.50195327 .00000453 00000-0 45774-4 0 9996</TLE_LINE1>
<TLE_LINE2>2 49138 70.0000 320.9535 0002739 270.7178 89.3668 14.98327661116087</TLE_LINE2>
<OBJECT_ID>2021-082J</OBJECT_ID>
<OBJECT_NUMBER>49138</OBJECT_NUMBER>
<SEMIMAJOR_AXIS>6950.200</SEMIMAJOR_AXIS>
<PERIOD>96.107</PERIOD>
<APOGEE>573.969</APOGEE>
<PERIGEE>570.161</PERIGEE>
<DECAYED>0</DECAYED>
</item>
<item>
<COMMENT>GENERATED VIA SPACETRACK.ORG API</COMMENT>
<ORIGINATOR>18 SPCS</ORIGINATOR>
<NORAD_CAT_ID>56791</NORAD_CAT_ID>
<OBJECT_NAME>STARLINK-5977</OBJECT_NAME>
<OBJECT_TYPE>PAYLOAD</OBJECT_TYPE>
<CLASSIFICATION_TYPE>U</CLASSIFICATION_TYPE>
<INTLDES>23078AA</INTLDES>
<EPOCH>2023-10-24 12:12:53</EPOCH>
<EPOCH_MICROSECONDS>912448</EPOCH_MICROSECONDS>
<MEAN_MOTION>14.98326609</MEAN_MOTION>
<ECCENTRICITY>0.0003035</ECCENTRICITY>
<INCLINATION>70</INCLINATION>
<RA_OF_ASC_NODE>10.9779</RA_OF_ASC_NODE>
<ARG_OF_PERICENTER>265.2178</ARG_OF_PERICENTER>
<MEAN_ANOMALY>94.8635</MEAN_ANOMALY>
<EPHEMERIS_TYPE>0</EPHEMERIS_TYPE>
<ELEMENT_SET_NO>999</ELEMENT_SET_NO>
<REV_AT_EPOCH>2278</REV_AT_EPOCH>
<BSTAR>0.000029955</BSTAR>
<MEAN_MOTION_DOT>0.00000264</MEAN_MOTION_DOT>
<MEAN_MOTION_DDOT>0</MEAN_MOTION_DDOT>
<FILE>4051588</FILE>
<TLE_LINE0>0 STARLINK-5977</TLE_LINE0>
<TLE_LINE1>1 56791U 23078AA 23297.50895732 .00000264 00000-0 29955-4 0 9996</TLE_LINE1>
<TLE_LINE2>2 56791 70.0000 10.9779 0003035 265.2178 94.8635 14.98326609 22784</TLE_LINE2>
<OBJECT_ID>2023-078AA</OBJECT_ID>
<OBJECT_NUMBER>56791</OBJECT_NUMBER>
<SEMIMAJOR_AXIS>6950.203</SEMIMAJOR_AXIS>
<PERIOD>96.107</PERIOD>
<APOGEE>574.178</APOGEE>
<PERIGEE>569.959</PERIGEE>
<DECAYED>0</DECAYED>
</item>
<item>
<COMMENT>GENERATED VIA SPACETRACK.ORG API</COMMENT>
<ORIGINATOR>18 SPCS</ORIGINATOR>
<NORAD_CAT_ID>55676</NORAD_CAT_ID>
<OBJECT_NAME>STARLINK-5300</OBJECT_NAME>
<OBJECT_TYPE>PAYLOAD</OBJECT_TYPE>
<CLASSIFICATION_TYPE>U</CLASSIFICATION_TYPE>
<INTLDES>23021BA</INTLDES>
<EPOCH>2023-10-24 14:00:01</EPOCH>
<EPOCH_MICROSECONDS>224</EPOCH_MICROSECONDS>
<MEAN_MOTION>15.31723295</MEAN_MOTION>
<ECCENTRICITY>0.0003246</ECCENTRICITY>
<INCLINATION>70</INCLINATION>
<RA_OF_ASC_NODE>172.1011</RA_OF_ASC_NODE>
<ARG_OF_PERICENTER>261.0027</ARG_OF_PERICENTER>
<MEAN_ANOMALY>300.9299</MEAN_ANOMALY>
<EPHEMERIS_TYPE>0</EPHEMERIS_TYPE>
<ELEMENT_SET_NO>999</ELEMENT_SET_NO>
<REV_AT_EPOCH>606</REV_AT_EPOCH>
<BSTAR>-0.030725</BSTAR>
<MEAN_MOTION_DOT>-0.00869141</MEAN_MOTION_DOT>
<MEAN_MOTION_DDOT>0</MEAN_MOTION_DDOT>
<FILE>4051588</FILE>
<TLE_LINE0>0 STARLINK-5300</TLE_LINE0>
<TLE_LINE1>1 55676U 23021BA 23297.58334491 -.00869141 00000-0 -30725-1 0 9996</TLE_LINE1>
<TLE_LINE2>2 55676 70.0000 172.1011 0003246 261.0027 300.9299 15.31723295 6066</TLE_LINE2>
<OBJECT_ID>2023-021BA</OBJECT_ID>
<OBJECT_NUMBER>55676</OBJECT_NUMBER>
<SEMIMAJOR_AXIS>6848.808</SEMIMAJOR_AXIS>
<PERIOD>94.012</PERIOD>
<APOGEE>472.896</APOGEE>
<PERIGEE>468.449</PERIGEE>
<DECAYED>0</DECAYED>
</item>

</xml>
